NSS-7                   
1 27414U 02019A   17345.06008834 -.00000163  00000-0  00000-0 0  9990
2 27414   2.2610  82.1070 0002518 185.3156 174.1875  1.00271243 57380
